{
  "type": "FeatureCollection",
  "features": [
    {
      "type": "Feature",
      "properties": {
        "norad_id": 55973,
        "name": "TIANMU-1 03",
        "group": "weather",
        "lat": -12.4529029384631,
        "lon": -21.944730455885765,
        "alt_km": 449.6754908795747,
        "timestamp": "2025-12-22T18:58:53.063353+00:00",
        "meta_object_name": "TIANMU-1 03",
        "meta_object_id": "2023-039A",
        "meta_epoch": "2025-12-22T07:14:29.203296",
        "meta_mean_motion": 15.41186956,
        "meta_eccentricity": 0.00039411,
        "meta_inclination": 97.5109,
        "meta_ra_of_asc_node": 159.222,
        "meta_arg_of_pericenter": 33.5633,
        "meta_mean_anomaly": 326.5862,
        "meta_ephemeris_type": 0,
        "meta_classification_type": "U",
        "meta_norad_cat_id": 55973,
        "meta_element_set_no": 999,
        "meta_rev_at_epoch": 15353,
        "meta_bstar": 0.00039812485,
        "meta_mean_motion_dot": 0.00016449,
        "meta_mean_motion_ddot": 0,
        "tle_line1": "1 55973U 23039A   25356.30172689  .00016449  00000+0  39812-3 0  9992",
        "tle_line2": "2 55973  97.5109 159.2220 0003941  33.5633 326.5862 15.41186956153538"
      },
      "geometry": {
        "type": "Point",
        "coordinates": [
          -21.944730455885765,
          -12.4529029384631
        ]
      }
    },
    {
      "type": "Feature",
      "properties": {
        "norad_id": 55974,
        "name": "TIANMU-1 04",
        "group": "weather",
        "lat": -41.062325122537835,
        "lon": 165.50611900405372,
        "alt_km": 446.97056521855484,
        "timestamp": "2025-12-22T18:58:53.063369+00:00",
        "meta_object_name": "TIANMU-1 04",
        "meta_object_id": "2023-039B",
        "meta_epoch": "2025-12-22T06:41:51.998784",
        "meta_mean_motion": 15.41527386,
        "meta_eccentricity": 0.00045714,
        "meta_inclination": 97.504,
        "meta_ra_of_asc_node": 158.3858,
        "meta_arg_of_pericenter": 27.4851,
        "meta_mean_anomaly": 332.6636,
        "meta_ephemeris_type": 0,
        "meta_classification_type": "U",
        "meta_norad_cat_id": 55974,
        "meta_element_set_no": 999,
        "meta_rev_at_epoch": 15353,
        "meta_bstar": 0.00040674247,
        "meta_mean_motion_dot": 0.00017001,
        "meta_mean_motion_ddot": 0,
        "tle_line1": "1 55974U 23039B   25356.27907406  .00017001  00000+0  40674-3 0  9995",
        "tle_line2": "2 55974  97.5040 158.3858 0004571  27.4851 332.6636 15.41527386153537"
      },
      "geometry": {
        "type": "Point",
        "coordinates": [
          165.50611900405372,
          -41.062325122537835
        ]
      }
    },
    {
      "type": "Feature",
      "properties": {
        "norad_id": 55975,
        "name": "TIANMU-1 05",
        "group": "weather",
        "lat": -23.20880851911619,
        "lon": 162.64677974976206,
        "alt_km": 447.47779167416866,
        "timestamp": "2025-12-22T18:58:53.063386+00:00",
        "meta_object_name": "TIANMU-1 05",
        "meta_object_id": "2023-039C",
        "meta_epoch": "2025-12-22T06:36:59.271264",
        "meta_mean_motion": 15.41142379,
        "meta_eccentricity": 0.00040743,
        "meta_inclination": 97.5087,
        "meta_ra_of_asc_node": 158.8751,
        "meta_arg_of_pericenter": 52.4728,
        "meta_mean_anomaly": 307.6888,
        "meta_ephemeris_type": 0,
        "meta_classification_type": "U",
        "meta_norad_cat_id": 55975,
        "meta_element_set_no": 999,
        "meta_rev_at_epoch": 15351,
        "meta_bstar": 0.00040052709,
        "meta_mean_motion_dot": 0.00016525,
        "meta_mean_motion_ddot": 0,
        "tle_line1": "1 55975U 23039C   25356.27568601  .00016525  00000+0  40053-3 0  9997",
        "tle_line2": "2 55975  97.5087 158.8751 0004074  52.4728 307.6888 15.41142379153519"
      },
      "geometry": {
        "type": "Point",
        "coordinates": [
          162.64677974976206,
          -23.20880851911619
        ]
      }
    },
    {
      "type": "Feature",
      "properties": {
        "norad_id": 55976,
        "name": "TIANMU-1 06",
        "group": "weather",
        "lat": -51.04566984633023,
        "lon": 169.26917940721975,
        "alt_km": 448.71309582923914,
        "timestamp": "2025-12-22T18:58:53.063405+00:00",
        "meta_object_name": "TIANMU-1 06",
        "meta_object_id": "2023-039D",
        "meta_epoch": "2025-12-22T06:44:32.297568",
        "meta_mean_motion": 15.41578684,
        "meta_eccentricity": 0.000434,
        "meta_inclination": 97.5098,
        "meta_ra_of_asc_node": 159.3535,
        "meta_arg_of_pericenter": 46.6597,
        "meta_mean_anomaly": 313.5011,
        "meta_ephemeris_type": 0,
        "meta_classification_type": "U",
        "meta_norad_cat_id": 55976,
        "meta_element_set_no": 999,
        "meta_rev_at_epoch": 15353,
        "meta_bstar": 0.00040204821,
        "meta_mean_motion_dot": 0.00016831,
        "meta_mean_motion_ddot": 0,
        "tle_line1": "1 55976U 23039D   25356.28092937  .00016831  00000+0  40205-3 0  9992",
        "tle_line2": "2 55976  97.5098 159.3535 0004340  46.6597 313.5011 15.41578684153531"
      },
      "geometry": {
        "type": "Point",
        "coordinates": [
          169.26917940721975,
          -51.04566984633023
        ]
      }
    },
    {
      "type": "Feature",
      "properties": {
        "norad_id": 56232,
        "name": "FENGYUN 3G",
        "group": "weather",
        "lat": -13.9988091840786,
        "lon": 7.649387082613526,
        "alt_km": 400.34204697765745,
        "timestamp": "2025-12-22T18:58:53.063422+00:00",
        "meta_object_name": "FENGYUN 3G",
        "meta_object_id": "2023-055A",
        "meta_epoch": "2025-12-22T05:47:15.098208",
        "meta_mean_motion": 15.54178866,
        "meta_eccentricity": 0.00092739,
        "meta_inclination": 49.9921,
        "meta_ra_of_asc_node": 178.403,
        "meta_arg_of_pericenter": 191.5009,
        "meta_mean_anomaly": 168.5748,
        "meta_ephemeris_type": 0,
        "meta_classification_type": "U",
        "meta_norad_cat_id": 56232,
        "meta_element_set_no": 999,
        "meta_rev_at_epoch": 15250,
        "meta_bstar": 0.00053083837,
        "meta_mean_motion_dot": 0.00034992,
        "meta_mean_motion_ddot": 0,
        "tle_line1": "1 56232U 23055A   25356.24114697  .00034992  00000+0  53084-3 0  9997",
        "tle_line2": "2 56232  49.9921 178.4030 0009273 191.5009 168.5748 15.54178866152506"
      },
      "geometry": {
        "type": "Point",
        "coordinates": [
          7.649387082613526,
          -13.9988091840786
        ]
      }
    },
    {
      "type": "Feature",
      "properties": {
        "norad_id": 57166,
        "name": "METEOR-M2 3",
        "group": "weather",
        "lat": -80.13552823513251,
        "lon": 169.22464581696877,
        "alt_km": 818.3833502034122,
        "timestamp": "2025-12-22T18:58:53.063438+00:00",
        "meta_object_name": "METEOR-M2 3",
        "meta_object_id": "2023-091A",
        "meta_epoch": "2025-12-22T05:56:06.662112",
        "meta_mean_motion": 14.24027222,
        "meta_eccentricity": 0.00033888,
        "meta_inclination": 98.6364,
        "meta_ra_of_asc_node": 49.6201,
        "meta_arg_of_pericenter": 339.8733,
        "meta_mean_anomaly": 20.2312,
        "meta_ephemeris_type": 0,
        "meta_classification_type": "U",
        "meta_norad_cat_id": 57166,
        "meta_element_set_no": 999,
        "meta_rev_at_epoch": 12933,
        "meta_bstar": 2.8174295e-05,
        "meta_mean_motion_dot": 2.1e-07,
        "meta_mean_motion_ddot": 0,
        "tle_line1": "1 57166U 23091A   25356.24729933  .00000021  00000+0  28174-4 0  9998",
        "tle_line2": "2 57166  98.6364  49.6201 0003388 339.8733  20.2312 14.24027222129337"
      },
      "geometry": {
        "type": "Point",
        "coordinates": [
          169.22464581696877,
          -80.13552823513251
        ]
      }
    },
    {
      "type": "Feature",
      "properties": {
        "norad_id": 57399,
        "name": "TIANMU-1 07",
        "group": "weather",
        "lat": -71.69282939699475,
        "lon": -156.3303929284154,
        "alt_km": 491.886763003381,
        "timestamp": "2025-12-22T18:58:53.063454+00:00",
        "meta_object_name": "TIANMU-1 07",
        "meta_object_id": "2023-101A",
        "meta_epoch": "2025-12-22T05:18:18.934272",
        "meta_mean_motion": 15.2819816,
        "meta_eccentricity": 0.00051905,
        "meta_inclination": 97.286,
        "meta_ra_of_asc_node": 45.862,
        "meta_arg_of_pericenter": 57.5268,
        "meta_mean_anomaly": 302.6474,
        "meta_ephemeris_type": 0,
        "meta_classification_type": "U",
        "meta_norad_cat_id": 57399,
        "meta_element_set_no": 999,
        "meta_rev_at_epoch": 13460,
        "meta_bstar": 0.00029781082,
        "meta_mean_motion_dot": 8.115e-05,
        "meta_mean_motion_ddot": 0,
        "tle_line1": "1 57399U 23101A   25356.22105248  .00008115  00000+0  29781-3 0  9999",
        "tle_line2": "2 57399  97.2860  45.8620 0005190  57.5268 302.6474 15.28198160134601"
      },
      "geometry": {
        "type": "Point",
        "coordinates": [
          -156.3303929284154,
          -71.69282939699475
        ]
      }
    }
  ]
}